NORAD_CAT_ID,OBJECT_NAME,OBJECT_TYPE,EPOCH,MEAN_MOTION,ECCENTRICITY,INCLINATION,RA_OF_ASC_NODE,ARG_OF_PERICENTER,MEAN_ANOMALY,BSTAR,MEAN_MOTION_DOT,MEAN_MOTION_DDOT,TLE_LINE0,TLE_LINE1,TLE_LINE2,SEMIMAJOR_AXIS,PERIOD,APOGEE,PERIGEE,DECAYED
55942.0,STARLINK-5917,PAYLOAD,2023-08-28 23:53:54,14.98324572,0.0003076,69.9981,93.258,269.6918,90.3888,6.2057e-05,6.47e-06,0.0,0 STARLINK-5917,1 55942U 23037AE  23240.99576549  .00000647  00000-0  62057-4 0  9996,2 55942  69.9981  93.2580 0003076 269.6918  90.3888 14.98324572 25966,6950.21,96.107,574.213,569.937,0.0
55942.0,STARLINK-5917,PAYLOAD,2023-08-29 20:43:38,14.98329913,0.0003123,69.9981,91.0693,269.4913,90.5888,2.883e-06,-5.9e-07,0.0,0 STARLINK-5917,1 55942U 23037AE  23241.86364470 -.00000059  00000-0  28830-5 0  9991,2 55942  69.9981  91.0693 0003123 269.4913  90.5888 14.98329913 25756,6950.193,96.107,574.229,569.888,0.0
55942.0,STARLINK-5917,PAYLOAD,2023-08-29 23:55:54,14.98331537,0.0003112,69.9982,90.7327,269.681,90.3993,2.151e-05,1.64e-06,0.0,0 STARLINK-5917,1 55942U 23037AE  23241.99716307  .00000164  00000-0  21510-4 0  9998,2 55942  69.9982  90.7327 0003112 269.6810  90.3993 14.98331537 26114,6950.188,96.107,574.216,569.89,0.0
55942.0,STARLINK-5917,PAYLOAD,2023-08-30 20:45:39,14.9832957,0.0002901,69.9989,88.5461,262.7367,97.3463,2.8347e-05,2.45e-06,0.0,0 STARLINK-5917,1 55942U 23037AE  23242.86504338  .00000245  00000-0  28347-4 0  9999,2 55942  69.9989  88.5461 0002901 262.7367  97.3463 14.98329570 25900,6950.194,96.107,574.075,570.043,0.0
55942.0,STARLINK-5917,PAYLOAD,2023-08-31 23:59:56,14.98329489,0.0003061,69.9989,85.6846,267.4024,92.6785,7.6134e-09,-9.3e-07,0.0,0 STARLINK-5917,1 55942U 23037AE  23243.99996341 -.00000093  00000-0  76134-8 0  9996,2 55942  69.9989  85.6846 0003061 267.4024  92.6785 14.98329489 26416,6950.194,96.107,574.187,569.932,0.0
55942.0,STARLINK-5917,PAYLOAD,2023-09-01 06:24:29,14.98310397,0.0003127,69.9996,85.0103,279.5761,80.5045,0.00026045,3.014e-05,0.0,0 STARLINK-5917,1 55942U 23037AE  23244.26701013  .00003014  00000-0  26045-3 0  9993,2 55942  69.9996  85.0103 0003127 279.5761  80.5045 14.98310397 26456,6950.254,96.108,574.292,569.945,0.0
55942.0,STARLINK-5917,PAYLOAD,2023-09-01 19:13:33,14.98330308,0.0003297,69.9984,83.6627,268.3771,91.701,4.2317e-06,-4.3e-07,0.0,0 STARLINK-5917,1 55942U 23037AE  23244.80108134 -.00000043  00000-0  42317-5 0  9990,2 55942  69.9984  83.6627 0003297 268.3771  91.7010 14.98330308 26194,6950.192,96.107,574.348,569.765,0.0
55942.0,STARLINK-5917,PAYLOAD,2023-09-02 12:51:02,14.98329572,0.0003322,69.9983,81.8109,268.406,91.6719,-4.6539e-06,-1.49e-06,0.0,0 STARLINK-5917,1 55942U 23037AE  23245.53544171 -.00000149  00000-0 -46539-5 0  9994,2 55942  69.9983  81.8109 0003322 268.4060  91.6719 14.98329572 26308,6950.194,96.107,574.368,569.75,0.0
55942.0,STARLINK-5917,PAYLOAD,2023-09-02 19:15:34,14.98326258,0.0003099,69.9993,81.138,268.9988,91.0816,-2.8848e-05,-4.37e-06,0.0,0 STARLINK-5917,1 55942U 23037AE  23245.80248479 -.00000437  00000-0 -28848-4 0  9998,2 55942  69.9993  81.1380 0003099 268.9988  91.0816 14.98326258 26342,6950.204,96.107,574.223,569.916,0.0
55942.0,STARLINK-5917,PAYLOAD,2023-09-03 00:03:58,14.98326596,0.0002881,69.9999,80.6327,267.7783,92.3046,-3.2216e-05,-4.77e-06,0.0,0 STARLINK-5917,1 55942U 23037AE  23246.00276511 -.00000477  00000-0 -32216-4 0  9997,2 55942  69.9999  80.6327 0002881 267.7783  92.3046 14.98326596 26716,6950.203,96.107,574.071,570.066,0.0
55942.0,STARLINK-5917,PAYLOAD,2023-09-03 06:28:31,14.98327478,0.0003095,69.9994,79.9592,269.6933,90.3872,-2.4969e-05,-3.91e-06,0.0,0 STARLINK-5917,1 55942U 23037AE  23246.26980422 -.00000391  00000-0 -24969-4 0  9999,2 55942  69.9994  79.9592 0003095 269.6933  90.3872 14.98327478 26414,6950.201,96.107,574.217,569.915,0.0
55942.0,STARLINK-5917,PAYLOAD,2023-09-04 00:05:59,14.98335644,0.0002715,70.0001,78.1066,266.6289,93.456,-9.8767e-05,-1.271e-05,0.0,0 STARLINK-5917,1 55942U 23037AE  23247.00416082 -.00001271  00000-0 -98767-4 0  9993,2 55942  70.0001  78.1066 0002715 266.6289  93.4560 14.98335644 26863,6950.175,96.107,573.927,570.153,0.0
55942.0,STARLINK-5917,PAYLOAD,2023-09-04 06:30:32,14.98328059,0.0002519,70.0003,77.4342,271.843,88.2441,-1.1413e-05,-2.29e-06,0.0,0 STARLINK-5917,1 55942U 23037AE  23247.27120626 -.00000229  00000-0 -11413-4 0  9993,2 55942  70.0003  77.4342 0002519 271.8430  88.2441 14.98328059 26909,6950.199,96.107,573.815,570.313,0.0
55942.0,STARLINK-5917,PAYLOAD,2023-09-05 11:20:56,14.98330069,0.0003165,69.9998,74.4044,270.6248,89.4549,4.1578e-05,4.03e-06,0.0,0 STARLINK-5917,1 55942U 23037AE  23248.47288139  .00000403  00000-0  41578-4 0  9997,2 55942  69.9998  74.4044 0003165 270.6248  89.4549 14.98330069 27083,6950.193,96.107,574.257,569.858,0.0
55942.0,STARLINK-5917,PAYLOAD,2023-09-06 11:22:57,14.98331702,0.0003139,69.9999,71.8793,270.9778,89.1021,2.3462e-05,1.87e-06,0.0,0 STARLINK-5917,1 55942U 23037AE  23249.47427970  .00000187  00000-0  23462-4 0  9997,2 55942  69.9999  71.8793 0003139 270.9778  89.1021 14.98331702 26893,6950.188,96.107,574.234,569.871,0.0
55942.0,STARLINK-5917,PAYLOAD,2023-09-06 20:59:46,14.9833163,0.0003171,69.9999,70.8702,269.9705,90.1091,2.6051e-05,2.18e-06,0.0,0 STARLINK-5917,1 55942U 23037AE  23249.87483883  .00000218  00000-0  26051-4 0  9998,2 55942  69.9999  70.8702 0003171 269.9705  90.1091 14.98331630 26952,6950.188,96.107,574.257,569.849,0.0
55942.0,STARLINK-5917,PAYLOAD,2023-09-07 13:01:07,14.98328689,0.0003123,69.9995,69.1855,270.6876,89.3925,-6.342e-05,-8.5e-06,0.0,0 STARLINK-5917,1 55942U 23037AE  23250.54244253 -.00000850  00000-0 -63420-4 0  9995,2 55942  69.9995  69.1855 0003123 270.6876  89.3925 14.98328689 27051,6950.197,96.107,574.232,569.891,0.0
55942.0,STARLINK-5917,PAYLOAD,2023-09-07 17:49:31,14.98330952,0.0003126,69.9994,68.6806,269.9973,90.0827,-2.6541e-05,-4.1e-06,0.0,0 STARLINK-5917,1 55942U 23037AE  23250.74271991 -.00000410  00000-0 -26541-4 0  9991,2 55942  69.9994  68.6806 0003126 269.9973  90.0827 14.98330952 27429,6950.19,96.107,574.228,569.882,0.0
55942.0,STARLINK-5917,PAYLOAD,2023-09-07 21:01:47,14.98331564,0.0003118,69.9994,68.344,269.8706,90.2096,-1.8961e-05,-3.19e-06,0.0,0 STARLINK-5917,1 55942U 23037AE  23250.87623920 -.00000319  00000-0 -18961-4 0  9993,2 55942  69.9994  68.3440 0003118 269.8706  90.2096 14.98331564 27109,6950.188,96.107,574.22,569.886,0.0
55942.0,STARLINK-5917,PAYLOAD,2023-09-08 13:03:07,14.98331027,0.0003128,69.9992,66.6605,269.5258,90.5543,-8.0934e-06,-1.9e-06,0.0,0 STARLINK-5917,1 55942U 23037AE  23251.54383867 -.00000190  00000-0 -80934-5 0  9998,2 55942  69.9992  66.6605 0003128 269.5258  90.5543 14.98331027 27206,6950.19,96.107,574.229,569.881,0.0
55942.0,STARLINK-5917,PAYLOAD,2023-09-08 17:51:31,14.98332156,0.0003139,69.9993,66.1555,269.2574,90.8225,4.5419e-06,-3.9e-07,0.0,0 STARLINK-5917,1 55942U 23037AE  23251.74411734 -.00000039  00000-0  45419-5 0  9995,2 55942  69.9993  66.1555 0003139 269.2574  90.8225 14.98332156 27570,6950.186,96.107,574.233,569.87,0.0
55942.0,STARLINK-5917,PAYLOAD,2023-09-09 13:05:08,14.98326363,0.000314,69.9993,64.1357,268.8431,91.2369,1.0699e-05,3.5e-07,0.0,0 STARLINK-5917,1 55942U 23037AE  23252.54524058  .00000035  00000-0  10699-4 0  9994,2 55942  69.9993  64.1357 0003140 268.8431  91.2369 14.98326363 27350,6950.204,96.107,574.252,569.887,0.0
55942.0,STARLINK-5917,PAYLOAD,2023-09-09 19:29:40,14.9832882,0.0003161,69.9994,63.4625,268.9252,91.1544,8.9624e-06,1.4e-07,0.0,0 STARLINK-5917,1 55942U 23037AE  23252.81227934  .00000014  00000-0  89624-5 0  9999,2 55942  69.9994  63.4625 0003161 268.9252  91.1544 14.98328820 27732,6950.197,96.107,574.258,569.865,0.0
55942.0,STARLINK-5917,PAYLOAD,2023-09-10 13:07:09,14.98329043,0.0003163,69.9995,61.6108,268.8826,91.1971,2.5205e-05,2.08e-06,0.0,0 STARLINK-5917,1 55942U 23037AE  23253.54663834  .00000208  00000-0  25205-4 0  9992,2 55942  69.9995  61.6108 0003163 268.8826  91.1971 14.98329043 27504,6950.196,96.107,574.259,569.863,0.0
55942.0,STARLINK-5917,PAYLOAD,2023-09-11 00:20:05,14.98335677,0.0003177,69.9995,60.4325,268.936,91.1436,4.9959e-05,5.03e-06,0.0,0 STARLINK-5917,1 55942U 23037AE  23254.01395278  .00000503  00000-0  49959-4 0  9999,2 55942  69.9995  60.4325 0003177 268.9360  91.1436 14.98335677 27912,6950.175,96.107,574.248,569.832,0.0
55942.0,STARLINK-5917,PAYLOAD,2023-09-11 13:09:10,14.98327208,0.000318,69.9996,59.0859,267.8933,92.1862,3.8498e-05,3.66e-06,0.0,0 STARLINK-5917,1 55942U 23037AE  23254.54803805  .00000366  00000-0  38498-4 0  9990,2 55942  69.9996  59.0859 0003180 267.8933  92.1862 14.98327208 27653,6950.202,96.107,574.277,569.856,0.0
55942.0,STARLINK-5917,PAYLOAD,2023-09-11 17:57:34,14.98329395,0.0003187,70.0,58.5814,269.0705,91.0089,3.1468e-05,2.82e-06,0.0,0 STARLINK-5917,1 55942U 23037AE  23254.74831705  .00000282  00000-0  31468-4 0  9999,2 55942  70.0000  58.5814 0003187 269.0705  91.0089 14.98329395 28025,6950.195,96.107,574.275,569.845,0.0
55942.0,STARLINK-5917,PAYLOAD,2023-09-12 03:34:23,14.98310595,0.0003083,70.0005,57.5715,271.5285,88.552,0.00034986,4.082e-05,0.0,0 STARLINK-5917,1 55942U 23037AE  23255.14888225  .00004082  00000-0  34986-3 0  9992,2 55942  70.0005  57.5715 0003083 271.5285  88.5520 14.98310595 28084,6950.253,96.108,574.261,569.975,0.0
55942.0,STARLINK-5917,PAYLOAD,2023-09-12 13:11:11,14.98330301,0.0003126,70.0008,56.5617,270.1153,89.9648,-9.6336e-06,-2.08e-06,0.0,0 STARLINK-5917,1 55942U 23037AE  23255.54943690 -.00000208  00000-0 -96336-5 0  9991,2 55942  70.0008  56.5617 0003126 270.1153  89.9648 14.98330301 27806,6950.192,96.107,574.23,569.884,0.0
55942.0,STARLINK-5917,PAYLOAD,2023-09-12 17:59:35,14.9832876,0.0002951,70.0009,56.057,267.7455,92.3366,8.7493e-05,9.51e-06,0.0,0 STARLINK-5917,1 55942U 23037AE  23255.74971522  .00000951  00000-0  87493-4 0  9994,2 55942  70.0009  56.0570 0002951 267.7455  92.3366 14.98328760 28174,6950.197,96.107,574.113,570.011,0.0
